NORAD_CAT_ID,OBJECT_NAME,OBJECT_TYPE,EPOCH,MEAN_MOTION,ECCENTRICITY,INCLINATION,RA_OF_ASC_NODE,ARG_OF_PERICENTER,MEAN_ANOMALY,BSTAR,MEAN_MOTION_DOT,MEAN_MOTION_DDOT,TLE_LINE0,TLE_LINE1,TLE_LINE2,SEMIMAJOR_AXIS,PERIOD,APOGEE,PERIGEE,DECAYED
53620.0,STARLINK-4615,PAYLOAD,2022-11-29 06:00:00,15.08845487,0.0002112,53.2138,204.9766,45.362,23.942,-0.0011587,-0.00018685,0.0,0 STARLINK-4615,1 53620U 22104AJ  22333.25001157 -.00018685  00000-0 -11587-2 0  9993,2 53620  53.2138 204.9766 0002112  45.3620  23.9420 15.08845487 14443,6917.864000000001,95.437,541.19,538.268,0.0
53620.0,STARLINK-4615,PAYLOAD,2022-11-29 14:00:01,15.08822078,0.000201,53.2139,203.4787,51.5555,29.409,0.0026891,0.00042748,0.0,0 STARLINK-4615,1 53620U 22104AJ  22333.58335648  .00042748  00000-0  26891-2 0  9993,2 53620  53.2139 203.4787 0002010  51.5555  29.4090 15.08822078  1300,6917.935,95.439,541.191,538.41,0.0
53620.0,STARLINK-4615,PAYLOAD,2022-11-29 22:00:00,15.08849918,0.0002204,53.2141,201.9841,48.4071,44.0873,-0.00065651,-0.00010725,0.0,0 STARLINK-4615,1 53620U 22104AJ  22333.91667824 -.00010725  00000-0 -65651-3 0  9994,2 53620  53.2141 201.9841 0002204  48.4071  44.0873 15.08849918 14544,6917.85,95.437,541.24,538.19,0.0
53620.0,STARLINK-4615,PAYLOAD,2022-11-30 14:00:01,15.08859695,0.0002066,53.2146,198.9893,52.2516,63.5213,-0.00058392,-9.575e-05,0.0,0 STARLINK-4615,1 53620U 22104AJ  22334.58335648 -.00009575  00000-0 -58392-3 0  9999,2 53620  53.2146 198.9893 0002066  52.2516  63.5213 15.08859695 14642,6917.82,95.436,541.114,538.256,0.0
53620.0,STARLINK-4615,PAYLOAD,2022-11-30 22:00:00,15.08823999,0.0002143,53.2158,197.4958,49.6681,77.6633,0.0027484,0.00043706,0.0,0 STARLINK-4615,1 53620U 22104AJ  22334.91667824  .00043706  00000-0  27484-2 0  9999,2 53620  53.2158 197.4958 0002143  49.6681  77.6633 15.08823999  1309,6917.929,95.439,541.2769999999998,538.312,0.0
53620.0,STARLINK-4615,PAYLOAD,2022-12-01 14:00:01,15.08839604,0.000212,53.2152,194.5,52.1398,98.393,0.0020738,0.00032871,0.0,0 STARLINK-4615,1 53620U 22104AJ  22335.58334491  .00032871  00000-0  20738-2 0  9990,2 53620  53.2152 194.5000 0002120  52.1398  98.3930 15.08839604  1308,6917.882,95.438,541.2130000000002,538.28,0.0
53620.0,STARLINK-4615,PAYLOAD,2022-12-01 22:00:00,15.08863029,0.0002284,53.2152,193.0054,47.8176,114.3198,-0.0021779,-0.00034806,0.0,0 STARLINK-4615,1 53620U 22104AJ  22335.91667824 -.00034806  00000-0 -21779-2 0  9994,2 53620  53.2152 193.0054 0002284  47.8176 114.3198 15.08863029 14843,6917.81,95.436,541.255,538.095,0.0
53620.0,STARLINK-4615,PAYLOAD,2022-12-02 14:00:01,15.08842827,0.0002057,53.2156,190.0109,51.5219,133.8124,-0.00073132,-0.0001190999999999,0.0,0 STARLINK-4615,1 53620U 22104AJ  22336.58334491 -.00011910  00000-0 -73132-3 0  9991,2 53620  53.2156 190.0109 0002057  51.5219 133.8124 15.08842827 14942,6917.871999999999,95.437,541.16,538.314,0.0
53620.0,STARLINK-4615,PAYLOAD,2022-12-02 22:00:00,15.08807237,0.0002182,53.2155,188.5163,45.2618,151.6694,-4.3144e-05,-9.74e-06,0.0,0 STARLINK-4615,1 53620U 22104AJ  22336.91667824 -.00000974  00000-0 -43144-4 0  9996,2 53620  53.2155 188.5163 0002182  45.2618 151.6694 15.08807237  1307,6917.981,95.44,541.355,538.336,0.0
53620.0,STARLINK-4615,PAYLOAD,2022-12-03 14:00:01,15.08813279,0.0002011,53.2155,185.522,51.5687,168.4786,0.001146,0.00017984,0.0,0 STARLINK-4615,1 53620U 22104AJ  22337.58334491  .00017984  00000-0  11460-2 0  9992,2 53620  53.2155 185.5220 0002011  51.5687 168.4786 15.08813279  1306,6917.962,95.439,541.2180000000002,538.436,0.0
53620.0,STARLINK-4615,PAYLOAD,2022-12-03 22:00:00,15.08811376,0.0002202,53.2153,184.0274,46.7414,184.8797,0.00060244,9.305e-05,0.0,0 STARLINK-4615,1 53620U 22104AJ  22337.91667824  .00009305  00000-0  60244-3 0  9991,2 53620  53.2153 184.0274 0002202  46.7414 184.8797 15.08811376 15140,6917.968000000003,95.439,541.356,538.31,0.0
53620.0,STARLINK-4615,PAYLOAD,2022-12-04 14:00:01,15.088264,0.0002028,53.215,181.0331,53.7727,200.9868,0.00071227,0.00011062,0.0,0 STARLINK-4615,1 53620U 22104AJ  22338.58334491  .00011062  00000-0  71227-3 0  9992,2 53620  53.2150 181.0331 0002028  53.7727 200.9868 15.08826400  1305,6917.922,95.438,541.19,538.384,0.0
53620.0,STARLINK-4615,PAYLOAD,2022-12-04 22:00:00,15.08818155,0.0002225,53.2147,179.5385,48.8261,217.5211,0.0010385,0.00016269,0.0,0 STARLINK-4615,1 53620U 22104AJ  22338.91667824  .00016269  00000-0  10385-2 0  9999,2 53620  53.2147 179.5385 0002225  48.8261 217.5211 15.08818155  1303,6917.946999999999,95.439,541.351,538.273,0.0
53620.0,STARLINK-4615,PAYLOAD,2022-12-05 06:00:00,15.08847287,0.0002108,53.2143,178.0409,50.6725,227.2503,-0.0018779,-0.00030058,0.0,0 STARLINK-4615,1 53620U 22104AJ  22339.25001157 -.00030058  00000-0 -18779-2 0  9997,2 53620  53.2143 178.0409 0002108  50.6725 227.2503 15.08847287 15345,6917.858,95.437,541.181,538.265,0.0
53620.0,STARLINK-4615,PAYLOAD,2022-12-05 12:00:00,15.08823811,0.0002043,53.2141,176.9179,55.1677,141.452,0.0020849,0.00033035,0.0,0 STARLINK-4615,1 53620U 22104AJ  22339.50001157  .00033035  00000-0  20849-2 0  9992,2 53620  53.2141 176.9179 0002043  55.1677 141.4520 15.08823811  1302,6917.93,95.439,541.2080000000002,538.382,0.0
53620.0,STARLINK-4615,PAYLOAD,2022-12-05 17:29:29,15.08826172,0.0002146,53.2164,175.8912,51.1955,308.9229,0.00010545,1.39e-05,0.0,0 STARLINK-4615,1 53620U 22104AJ  22339.72881520  .00001390  00000-0  10545-3 0  9998,2 53620  53.2164 175.8912 0002146  51.1955 308.9229 15.08826172 15426,6917.9230000000025,95.438,541.2719999999998,538.303,0.0
53620.0,STARLINK-4615,PAYLOAD,2022-12-05 19:04:52,15.08828045,0.0002147,53.2163,175.5938,51.1762,308.9421,9.4472e-05,1.215e-05,0.0,0 STARLINK-4615,1 53620U 22104AJ  22339.79505507  .00001215  00000-0  94472-4 0  9991,2 53620  53.2163 175.5938 0002147  51.1762 308.9421 15.08828045 16119,6917.917,95.438,541.2669999999998,538.297,0.0
53620.0,STARLINK-4615,PAYLOAD,2022-12-06 14:09:30,15.08834712,0.0002173,53.2163,172.0253,52.7506,307.3684,9.7127e-05,1.258e-05,0.0,0 STARLINK-4615,1 53620U 22104AJ  22340.58993541  .00001258  00000-0  97127-4 0  9996,2 53620  53.2163 172.0253 0002173  52.7506 307.3684 15.08834712 16238,6917.897,95.438,541.265,538.258,0.0
53620.0,STARLINK-4615,PAYLOAD,2022-12-06 17:20:16,15.08836087,0.0002187,53.2165,171.4307,53.0158,307.1034,0.00010325,1.355e-05,0.0,0 STARLINK-4615,1 53620U 22104AJ  22340.72241460  .00001355  00000-0  10325-3 0  9990,2 53620  53.2165 171.4307 0002187  53.0158 307.1034 15.08836087 15575,6917.892,95.438,541.27,538.244,0.0
53620.0,STARLINK-4615,PAYLOAD,2022-12-07 18:46:26,15.08845351,0.0002277,53.2182,166.6742,54.0739,306.0464,7.707e-05,9.39e-06,0.0,0 STARLINK-4615,1 53620U 22104AJ  22341.78224949  .00000939  00000-0  77070-4 0  9998,2 53620  53.2182 166.6742 0002277  54.0739 306.0464 15.08845351 16412,6917.864000000001,95.437,541.304,538.154,0.0
53620.0,STARLINK-4615,PAYLOAD,2022-12-08 05:54:07,15.08849622,0.000234,53.2176,164.5937,47.5934,312.5256,0.0001232,1.673e-05,0.0,0 STARLINK-4615,1 53620U 22104AJ  22342.24592145  .00001673  00000-0  12320-3 0  9998,2 53620  53.2176 164.5937 0002340  47.5934 312.5256 15.08849622 15801,6917.851,95.437,541.335,538.097,0.0
53620.0,STARLINK-4615,PAYLOAD,2022-12-08 18:37:15,15.08809361,0.0002483,53.2193,162.2154,327.1491,32.9346,-0.00028499,-4.817e-05,0.0,0 STARLINK-4615,1 53620U 22104AJ  22342.77587090 -.00004817  00000-0 -28499-3 0  9998,2 53620  53.2193 162.2154 0002483 327.1491  32.9346 15.08809361 15886,6917.974,95.439,541.557,538.121,0.0
53620.0,STARLINK-4615,PAYLOAD,2022-12-08 23:23:21,15.08853612,0.0002025,53.2195,161.3237,34.3477,325.7646,5.5257e-05,5.92e-06,0.0,0 STARLINK-4615,1 53620U 22104AJ  22342.97455302  .00000592  00000-0  55257-4 0  9997,2 53620  53.2195 161.3237 0002025  34.3477 325.7646 15.08853612 15911,6917.839,95.437,541.105,538.303,0.0
53620.0,STARLINK-4615,PAYLOAD,2022-12-09 12:06:27,15.08790815,0.00014,53.2183,158.9465,346.5398,13.5556,0.00063599,9.835e-05,0.0,0 STARLINK-4615,1 53620U 22104AJ  22343.50448365  .00009835  00000-0  63599-3 0  9994,2 53620  53.2183 158.9465 0001400 346.5398  13.5556 15.08790815 15994,6918.031,95.441,540.864,538.927,0.0
53620.0,STARLINK-4615,PAYLOAD,2022-12-09 23:14:07,15.08861233,0.0002076,53.2187,156.8661,34.586,325.5267,0.00016421,2.328e-05,0.0,0 STARLINK-4615,1 53620U 22104AJ  22343.96813976  .00002328  00000-0  16421-3 0  9990,2 53620  53.2187 156.8661 0002076  34.5860 325.5267 15.08861233 16068,6917.815,95.436,541.117,538.244,0.0
53620.0,STARLINK-4615,PAYLOAD,2022-12-10 11:57:13,15.08837915,0.000209,53.2186,154.4869,29.6001,330.5109,4.4715e-05,4.23e-06,0.0,0 STARLINK-4615,1 53620U 22104AJ  22344.49807429  .00000423  00000-0  44715-4 0  9997,2 53620  53.2186 154.4869 0002090  29.6001 330.5109 15.08837915 16824,6917.887,95.438,541.198,538.306,0.0
53620.0,STARLINK-4615,PAYLOAD,2022-12-10 16:43:23,15.08798038,0.0001887,53.2203,153.595,336.4912,23.5994,0.00046595,7.127e-05,0.0,0 STARLINK-4615,1 53620U 22104AJ  22344.69680273  .00007127  00000-0  46595-3 0  9990,2 53620  53.2203 153.5950 0001887 336.4912  23.5994 15.08798038 16179,6918.009,95.44,541.179,538.568,0.0
53620.0,STARLINK-4615,PAYLOAD,2022-12-10 21:29:32,15.08851225,0.0002342,53.2179,152.7008,41.2028,318.9141,-4.8092e-05,-1.054e-05,0.0,0 STARLINK-4615,1 53620U 22104AJ  22344.89550993 -.00001054  00000-0 -48092-4 0  9997,2 53620  53.2179 152.7008 0002342  41.2028 318.9141 15.08851225 16209,6917.846,95.437,541.331,538.091,0.0
53620.0,STARLINK-4615,PAYLOAD,2022-12-11 11:48:00,15.08837339,0.0002146,53.2184,150.0207,52.5754,307.5433,-9.5865e-06,-4.41e-06,0.0,0 STARLINK-4615,1 53620U 22104AJ  22345.49167636 -.00000441  00000-0 -95865-5 0  9992,2 53620  53.2184 150.0207 0002146  52.5754 307.5433 15.08837339 16297,6917.889,95.438,541.238,538.269,0.0
